DMSP 5D-3 F16 (USA 172) 
1 28054U 03048A   26091.50532289  .00000157  00000+0  10585-3 0  9990
2 28054  98.9964 114.8028 0007183  13.5105 146.1387 14.14470943158645
METEOSAT-9 (MSG-2)      
1 28912U 05049B   26090.04948723  .00000116  00000+0  00000+0 0  9990
2 28912   9.1872  54.9206 0000392 169.9861  26.9682  1.00272415  6215
DMSP 5D-3 F17 (USA 191) 
1 29522U 06050A   26091.44743183  .00000181  00000+0  11623-3 0  9998
2 29522  98.7408  99.5811 0008907 276.1497  83.8661 14.14974254  1577
FENGYUN 3A              
1 32958U 08026A   26091.36076624  .00000107  00000+0  71405-4 0  9993
2 32958  98.6827  33.6559 0008663 356.9621   3.1501 14.19553247924506
GOES 14                 
1 35491U 09033A   26091.52348867  .00000051  00000+0  00000+0 0  9992
2 35491   1.4927  83.9748 0001778 288.5808 190.7305  1.00110429  5826
DMSP 5D-3 F18 (USA 210) 
1 35951U 09057A   26091.48379819  .00000315  00000+0  18595-3 0  9990
2 35951  98.8995  72.4418 0012123 106.9314 253.3189 14.14850759848748
EWS-G2 (GOES 15)        
1 36411U 10008A   26091.47910120  .00000014  00000+0  00000+0 0  9999
2 36411   1.0773  84.3862 0003058  18.0206 323.1896  1.00271184 58862
COMS 1                  
1 36744U 10032A   26091.34936068 -.00000350  00000+0  00000+0 0  9994
2 36744   4.6073  76.4318 0001130 301.3021  65.8903  1.00271743 50326
FENGYUN 3B              
1 37214U 10059A   26091.51161271  .00000014  00000+0  30415-4 0  9995
2 37214  98.9719 137.1705 0022885  46.2084  59.5165 14.14822927796581
SUOMI NPP               
1 37849U 11061A   26091.51026123  .00000102  00000+0  69283-4 0  9992
2 37849  98.7899  32.9347 0001865 150.3832 209.7449 14.19499614747565
METEOSAT-10 (MSG-3)     
1 38552U 12035B   26091.23586552 -.00000014  00000+0  00000+0 0  9992
2 38552   4.4907  61.3402 0002443 290.7571 282.4657  1.00272409 50081
METOP-B                 
1 38771U 12049A   26091.46286067  .00000140  00000+0  83851-4 0  9992
2 38771  98.6592 144.4633 0002239 179.7697 180.3482 14.21425862702363
INSAT-3D                
1 39216U 13038B   26091.49227459 -.00000347  00000+0  00000+0 0  9999
2 39216   1.7286  83.5034 0001482 256.8368 156.2255  1.00267639 46317
FENGYUN 3C              
1 39260U 13052A   26091.50376781  .00000123  00000+0  83494-4 0  9993
2 39260  98.4930  68.9258 0013589 242.2584 117.7213 14.15736221647715
METEOR-M 2              
1 40069U 14037A   26091.49019690  .00000437  00000+0  21936-3 0  9997
2 40069  98.5052  69.9704 0004550 259.6226 100.4439 14.21438884608425
HIMAWARI-8              
1 40267U 14060A   26091.42636367 -.00000285  00000+0  00000+0 0  9999
2 40267   0.0032 183.4361 0000850 199.1742 101.3105  1.00271458 41990
FENGYUN 2G              
1 40367U 14090A   26091.48629458 -.00000304  00000+0  00000+0 0  9994
2 40367   5.4462  73.7307 0001564 145.7694 244.7495  1.00262452 41239
